#dP2024  3 26  6  0  0.00000000      96 __u+U IGS20 EXT  IAC
## 2307 194400.00000000   900.00000000 60395 0.2500000000000
+  120   C06C07C08C09C10C11C12C13C14C16C19C20C21C22C23C24C25
+        C26C27C28C29C30C32C33C34C35C36C37C38C39C40C41C42C43
+        C44C45C46E02E03E04E05E07E08E09E10E11E12E13E14E15E18
+        E19E21E24E25E26E27E30E31E33E34E36G01G02G03G04G05G06
+        G07G08G09G10G11G12G13G14G15G16G17G18G19G20G21G22G23
+        G24G25G26G27G28G29G30G31G32J02J03J04R01R02R03R04R05
+        R07R08R09R11R12R13R14R15R16R17R18R19R20R21R22R24R25
+        R26  0  0  0  0  0  0  0  0  0  0  0  0  0  0  0  0
++         8  8 10  8  9 10  8 10 10  8  8  9  9  8  8  9  8
++         9 10  9  9  9  7 10 10  9  8  8 10 11  9  9  8  9
++         9  8  9  8  8  8  8  8  8  8  9  9  8 10  8  9  8
++         8  8  8  8  9  7  8  8  8 11  9  7  8  7  8  8 12
++         9  8  7  9  8  7  7  8  8  8  8  8  8  8  8  8  8
++         7  8  8  8  8  8  8  8  8  8  9  0  9  8  8  9  8
++         8  9  8  8  8  8  9  8  9  9  7  8 10  9  8  9  9
++        10  0  0  0  0  0  0  0  0  0  0  0  0  0  0  0  0
%c M  cc GPS ccc cccc cccc cccc cccc ccccc ccccc ccccc ccccc
%c cc cc ccc ccc cccc cccc cccc cccc ccccc ccccc ccccc ccccc
%f  0.0000000  0.000000000  0.00000000000  0.000000000000000
%f  0.0000000  0.000000000  0.00000000000  0.000000000000000
%i    0    0    0    0      0      0      0      0         0
%i    0    0    0    0      0      0      0      0         0
/* IAC                                ULTRA-RAPID PREDICTION
/* S/V CLOCKS ARE ALIGNED TO GNSS TIME                      
/* G:C1WC2W R:C1PC2P E:C1XC5X C:C2IC6I J:C1CC2S             
/* PCV:IGS20_2290 OL/AL:FES2004  NONE     YN ORB:CoN CLK:CoN
*  2024 03 26 10 45  0.00000000
PC06 -10062.339414  23385.524836 -33600.225957    299.841357
PC07 -14919.330754  39063.253463   4508.334778   -879.711892
PC08    505.657748  32639.722159  26804.350925     29.752084
PC09  -2902.634192  24024.401858 -34063.599030   -673.752867
PC10  -7990.773853  39511.156924  11683.651588     28.744910
PC11 -17692.899991  14921.265406  15653.000861    479.464885
PC12 -27271.604513   5641.932251  -1798.071230   -220.460559
PC13   6342.317643  36448.856200  20636.854385    427.355172
PC14 -11588.737406  24156.751747   7704.750700    494.399991
PC16 -15508.240553  21490.544655 -32583.877323   -419.258083
PC19   5916.588022 -27244.707987   1584.934950   -917.161395
PC20  14857.535883 -18780.125186 -14344.161810   -295.353756
PC21 -15591.106011  -2043.615290  23072.024154   -961.642587
PC22  -6911.369831 -20593.987075  17538.398577    -61.214702
PC23  16111.947111  21951.901973  -6115.886379   -775.705514
PC24 -16308.424542   6089.491598 -21824.391099    949.674325
PC25    695.499841  19907.909529 -19563.908733    358.960644
PC26 -23210.209047 -10332.923320 -11525.959510   -268.198392
PC27  25998.093749    329.092435  10095.737501    290.062826
PC28  14522.939015  11308.760994  20976.066108    221.433394
PC29   7933.891416 -17435.651790 -20298.616676    259.694277
PC30  24343.150781 -12140.584758  -6178.669828    -44.511920
PC32  15592.321627   1958.727433 -23041.073456   -589.830234
PC33  -5823.794145  27240.324339  -1438.154794   -962.539061
PC34 -23550.453245  12920.459532   7595.263174    398.428063
PC35 -14809.768341 -10932.381456 -21000.908979    402.139570
PC36     84.845792 -19759.028153  19719.929738     30.967090
PC37  22998.754418  11177.925541  11208.952765   -949.210875
PC38  -6241.004761  28476.251869  30564.036919    145.092429
PC39 -20845.686692  20803.686890 -30194.702272     -7.716145
PC40 -22029.102940  35680.430804   2597.501766    -62.519684
PC41   6462.829500  21179.695895 -16911.500716   -912.459343
PC42 -15360.242536  17281.776567  15648.121088   -445.230018
PC43  -8974.824222  17521.446219  19775.183217     65.592304
PC44 -25979.852966    471.581245 -10240.840576    424.723338
PC45 -16109.742819 -21946.714480   6070.190940    -77.438868
PC46  15693.282743  -6669.371888  22087.379815   -134.756556
PE02   7162.001974 -23214.818572  16887.711413    114.306465
PE03  17732.496766 -22618.066496   7114.375058   -102.908987
PE04     -0.244848  20265.947044 -21560.714371   -358.609788
PE05  24765.060615 -11689.486709 -11230.704789   4732.632875
PE07 -17098.207723  -6519.179416  23274.303386   -111.037524
PE08    833.539767 -20538.858283  21308.732889   -244.931476
PE09  16944.051810   6483.499420 -23384.118779   -384.213855
PE10  19723.052511  16392.733891  14770.409624   -612.236149
PE11  26449.744764  12214.436430   5156.139711   3127.068036
PE12  10689.297132  17833.299885  21054.478660   -965.587273
PE13 -26200.324482 -12509.434467  -5805.821546    -20.705922
PE14  19136.247767   4262.871369  18395.722527     77.231880
PE15 -10177.620181 -17766.103831 -21377.230537    -93.411528
PE18 -11725.983076 -15360.259566 -22793.199058    478.759028
PE19 -19260.178141  21881.143774  -5128.736019   -361.507558
PE21 -16175.459588   4758.845254 -24336.355711   -585.925676
PE24  16013.053628  17658.654164  17540.397765   -672.258719
PE25  16279.316194  -4283.939477  24344.685750      2.579309
PE26 -26418.149001    478.159141  13356.118808    407.457613
PE27 -16142.485141 -17252.515626 -17829.665084   -308.328468
PE30  -6401.288819 -28883.448212   -731.017589   -133.724697
PE31   6592.495848  28846.248351    883.108498    -19.207206
PE33 -12139.931105  12256.471518  24056.884195      9.550416
PE34  11556.193710 -12557.133380 -24189.592207   -102.101222
PE36  26636.284584     33.435438 -12890.072386   -204.527172
PG01 -23397.512249 -11687.489901  -5925.695758    176.073217
PG02 -17637.661704 -13677.417002 -14115.701471   -464.028987
PG03 -12142.978682 -21128.395297  10567.167933    274.490430
PG04 -10113.700676 -11277.242546  21835.046086    323.957189
PG05   5670.998884  25766.703369   2408.809746   -166.801220
PG06 -16988.606270   7716.840269  19011.533248    351.129202
PG07 -25989.038112  -5567.494051  -3056.240231    -92.993611
PG08  -2358.046225 -17524.050890 -19790.546155     81.326189
PG09 -19494.338077   1531.748798  17920.197178    137.875410
PG10  12067.965772 -10135.846161 -21112.277755     -2.747611
PG11  -4389.267068  14460.518125  21866.406079   -618.159188
PG12  10344.095049  22478.837966   9446.556397   -490.732227
PG13  -8010.255392  19357.695416 -16391.874828    637.409270
PG14 -14512.337066   5954.221079 -21392.580256    360.256862
PG15   4675.799380  17643.011768 -19723.764407    141.677662
PG16    828.179043 -25426.450145   6428.227821   -332.159997
PG17 -22438.341637  12024.410932  -7428.035262    712.170524
PG18  25762.648633   4782.301781  -4906.554454   -582.865431
PG19 -20551.845384  16458.322438   1002.800722    459.299172
PG20  -1191.208068  22583.959591  14115.571085    382.526271
PG21 -13302.357714 -15086.937023 -17370.549777    129.841695
PG22 -11117.287162  14774.151895 -18752.534703     10.107863
PG23  15680.973753   3521.676685 -21158.779708    185.888322
PG24  15421.243421  15190.816279 -16070.082698   -451.453714
PG25  15534.947020  13817.332357  16336.434721    492.271170
PG26   6951.545245 -19111.765312  16740.881092    174.870403
PG27   9288.273836 -21223.927624 -12871.285053    -14.496290
PG28  19080.398413  -7197.441477  16997.780294   -178.677602
PG29  18363.571602   1916.613923  19078.644858   -603.778307
PG30 -22959.826680   3103.440415 -13087.711519   -414.398873
PG31  10128.947760 -12375.784950  21052.768754   -228.010957
PG32  21032.510454 -15078.891076  -5264.999466   -616.907527
PJ02 -21105.474002  28337.280885 -18422.871011     -3.325417
PJ03 -29907.777192  23343.859691  23473.070156     -0.154402
PJ04      0.000000      0.000000      0.000000     50.573963
PR01  10323.112907   3725.455762 -23019.047246     80.719532
PR02  14609.368284 -13326.574489 -16023.454395    -22.635598
PR03  10612.789579 -23162.385826    213.810124     97.067683
PR04   1285.549262 -19917.197805  15913.027212    229.239020
PR05  -8942.203238  -6116.951469  23109.426154    129.004703
PR07 -10340.119347  23325.081104   -953.860699     78.804561
PR08   -986.888604  19867.155110 -15921.094507    -74.866257
PR09 -13054.910398    709.603424 -21901.581666    177.469976
PR11  10629.404835  21559.359940  -8505.420409     30.005706
PR12  17311.521445  15313.474448  10828.532862     38.253145
PR13  14022.867530   1916.504563  21204.309972    -45.658389
PR14   1031.693056 -15388.100861  20331.199191     26.268096
PR15 -11335.213441 -21746.713973   7045.443002     81.039620
PR16 -17319.952998 -15479.376411 -10574.214261     24.309146
PR17  12033.929275 -10198.940420 -20051.216031     72.369087
PR18  -5935.539611  -9866.558255 -22755.569632    134.037277
PR19 -19633.171609  -5945.446229 -15165.734686   -270.763558
PR20 -24777.938612   3308.388069   5207.283684   -110.359592
PR21 -11990.017812  10044.195626  20140.731093    -87.595649
PR22   6806.239170  10268.536258  22357.674814    114.577108
PR24  24419.234074  -4696.812030  -5689.680462    -49.285925
PR25 -12187.577975  10011.798631  20045.936487    -25.121572
PR26  -1503.632076  20419.929285 -15170.187768    -28.272663
EOF
